[{"OBJECT_NAME":"SHERPA-AC1","OBJECT_ID":"2022-057AH","EPOCH":"2026-03-09T21:11:59.609184","MEAN_MOTION":15.34672465,"ECCENTRICITY":0.00090365,"INCLINATION":97.6522,"RA_OF_ASC_NODE":214.174,"ARG_OF_PERICENTER":87.4363,"MEAN_ANOMALY":272.7914,"EPHEMERIS_TYPE":0,"CLASSIFICATION_TYPE":"U","NORAD_CAT_ID":52763,"ELEMENT_SET_NO":999,"REV_AT_EPOCH":21046,"BSTAR":0.00031898426,"MEAN_MOTION_DOT":0.00010651,"MEAN_MOTION_DDOT":0},{"OBJECT_NAME":"STARLINK-34302","OBJECT_ID":"2025-176U","EPOCH":"2026-03-09T11:20:59.403264","MEAN_MOTION":15.30202628,"ECCENTRICITY":0.00012644,"INCLINATION":53.1595,"RA_OF_ASC_NODE":153.9872,"ARG_OF_PERICENTER":134.6336,"MEAN_ANOMALY":225.4768,"EPHEMERIS_TYPE":0,"CLASSIFICATION_TYPE":"U","NORAD_CAT_ID":65216,"ELEMENT_SET_NO":999,"REV_AT_EPOCH":3308,"BSTAR":0.00072557664,"MEAN_MOTION_DOT":0.00021193,"MEAN_MOTION_DDOT":0}]
